satname,norad_id,inclination_deg,eccentricity,mean_motion_rev_per_day,perigee_km,apogee_km,l1,l2
STARLINK-1360,45588,53.0399,0.0003963,15.86029182,310.7765103101947,316.0802450285364,1 45588U 20025BK  25338.75002315  .00213470  00000+0  82947-3 0  9992,2 45588  53.0399  28.8030 0003963   8.6470  73.1752 15.86029182  5864
STARLINK-1364,45589,53.0534,0.0001275,15.06398604,546.3328539938702,548.0988189671725,1 45589U 20025BL  25338.68050869  .00001210  00000+0  10010-3 0  9991,2 45589  53.0534 143.1340 0001275  91.2925 268.8210 15.06398604311185
STARLINK-1365,45590,53.0535,0.0001639,15.06398232,546.081911092173,548.3520421257053,1 45590U 20025BM  25338.69617760  .00000587  00000+0  58293-4 0  9995,2 45590  53.0535 173.0587 0001639  91.6204 268.4972 15.06398232310784
STARLINK-1443,45660,53.0553,0.0001359,15.06393998,546.28879589596,548.171110633858,1 45660U 20035D   25338.68143003  .00000079  00000+0  24225-4 0  9991,2 45660  53.0553 133.1296 0001359  90.9625 269.1520 15.06393998304418
STARLINK-1446,45663,53.0263,9.1e-05,15.36781701,455.0115937861183,456.2553400110937,1 45663U 20035G   25338.63248088  .00044786  00000+0  12314-2 0  9995,2 45663  53.0263  89.2285 0000910 339.8354  20.2612 15.36781701305026
STARLINK-1448,45665,53.0547,0.0001301,15.06393477,546.3305596175705,548.132540514298,1 45665U 20035J   25338.68511890  .00000314  00000+0  40004-4 0  9994,2 45665  53.0547 133.1080 0001301  93.2046 266.9091 15.06393477304406
STARLINK-1451,45668,53.0533,0.0001253,15.06396872,546.3533974488055,548.0888921998985,1 45668U 20035M   25338.68884654  .00001281  00000+0  10491-3 0  9998,2 45668  53.0533 133.4096 0001253  87.1092 273.0040 15.06396872304419
STARLINK-1452,45669,53.0386,0.0008158,15.30580598,468.48887014619777,479.66894562150173,1 45669U 20035N   25338.75002315  .00082236  00000+0  27234-2 0  9994,2 45669  53.0386 108.7671 0008158 129.2110 174.4369 15.30580598  5828
STARLINK-1453,45670,53.057,0.0001392,15.12625606,527.2350831672638,529.1578063982915,1 45670U 20035P   25338.63617683  .00036525  00000+0  20730-2 0  9997,2 45670  53.0570 102.6740 0001392  88.3879 271.7273 15.12625606304721
STARLINK-1454,45671,53.0533,0.0001199,15.06404413,546.3676850914562,548.0283804323126,1 45671U 20035Q   25338.64455963 -.00002273  00000+0 -13370-3 0  9998,2 45671  53.0533 133.2951 0001199  78.9869 281.1255 15.06404413304396
STARLINK-1456,45673,53.0531,0.0001214,15.06403512,546.360058176796,548.0415301932253,1 45673U 20035S   25338.65930683 -.00000810  00000+0 -35506-4 0  9999,2 45673  53.0531 133.2290 0001214 110.1636 249.9484 15.06403512304419
STARLINK-1457,45674,53.0516,0.0002595,15.4608833,426.41586604511485,429.9483456610524,1 45674U 20035T   25338.75002315  .00019094  00000+0  39170-3 0  9995,2 45674  53.0516 126.0868 0002595 288.8919   5.8418 15.46088330  5857
STARLINK-1458,45675,53.0549,0.0001613,15.06386891,546.1346702235724,548.3688006296206,1 45675U 20035U   25338.65563338  .00000250  00000+0  35665-4 0  9992,2 45675  53.0549 133.2392 0001613 132.2105 227.9021 15.06386891304370
STARLINK-1460,45676,53.0544,0.0001332,15.06398201,546.2946144573207,548.1395287820005,1 45676U 20035V   25338.69248176  .00001802  00000+0  13984-3 0  9990,2 45676  53.0544 133.0763 0001332  89.3718 270.7424 15.06398201304377
STARLINK-1392,45677,53.0542,0.0001325,15.06402719,546.28561702766,548.1208321871818,1 45677U 20035W   25338.70354264  .00001163  00000+0  96918-4 0  9998,2 45677  53.0542 133.0304 0001325  88.4571 271.6570 15.06402719304413
STARLINK-1394,45679,53.0532,0.0001216,15.06397291,546.3777372512977,548.0619840398067,1 45679U 20035Y   25338.70079191  .00002826  00000+0  20852-3 0  9993,2 45679  53.0532 123.0389 0001216  74.4055 285.7068 15.06397291304558
STARLINK-1402,45685,53.0512,0.0002989,15.30669713,471.76490188592834,475.86099756587464,1 45685U 20035AE  25338.66762169  .00128650  00000+0  42189-2 0  9999,2 45685  53.0512 110.6328 0002989 239.7642 120.3062 15.30669713304730
STARLINK-1404,45686,53.0548,0.0001274,15.06396434,546.3401964375653,548.1047780349136,1 45686U 20035AF  25338.66023441  .00000644  00000+0  62120-4 0  9994,2 45686  53.0548 123.2253 0001274  93.4615 266.6520 15.06396434304551
STARLINK-1413,45689,53.0546,0.0001333,15.06412773,546.249267065079,548.095554554,1 45689U 20035AJ  25338.67865472  .00003520  00000+0  25501-3 0  9993,2 45689  53.0546 123.1374 0001333  89.4164 270.6978 15.06412773304462
STARLINK-1417,45693,53.0524,2.29e-05,15.07205598,544.5850819426369,544.9021498748452,1 45693U 20035AN  25338.67088369  .00054774  00000+0  35887-2 0  9994,2 45693  53.0524 123.1327 0000229 233.6615 126.4353 15.07205598304548
STARLINK-1420,45695,53.053,0.0001283,15.06395166,546.3378493708542,548.1148976124932,1 45695U 20035AQ  25338.67586132 -.00015541  00000+0 -10269-2 0  9995,2 45695  53.0530 103.1406 0001283  86.5818 273.5318 15.06395166304831
STARLINK-1422,45696,53.055,0.0001374,15.06397632,546.2672716376774,548.1703594157843,1 45696U 20035AR  25338.61969242  .00000540  00000+0  55150-4 0  9998,2 45696  53.0550 123.4072 0001374  84.9291 275.1855 15.06397632304537
STARLINK-1351,45697,53.0551,0.000125,15.06400938,546.3430148944781,548.0743513152538,1 45697U 20035AS  25338.66207682  .00001757  00000+0  13683-3 0  9992,2 45697  53.0551 103.2160 0001250  93.6523 266.4609 15.06400938304838
STARLINK-1398,45699,53.0488,0.0001742,15.56922016,395.3911603469551,397.7514687237399,1 45699U 20035AU  25338.58908889  .00114058  00000+0  15409-2 0  9998,2 45699  53.0488  51.5485 0001742 273.3274  86.7538 15.56922016305555
STARLINK-1400,45700,53.0555,0.0001195,15.06400388,546.3827897638457,548.0379477849838,1 45700U 20035AV  25338.63627348  .00001829  00000+0  14165-3 0  9995,2 45700  53.0555 103.3290 0001195  89.7015 270.4111 15.06400388304823
STARLINK-1403,45701,53.055,0.0001237,15.06401062,546.3516378491568,548.0649682771345,1 45701U 20035AW  25338.66576082  .00001624  00000+0  12787-3 0  9998,2 45701  53.0550 103.1982 0001237  92.0369 268.0761 15.06401062304825
STARLINK-1407,45703,53.0423,0.0009304,15.44774406,425.7048265034664,438.3772057558808,1 45703U 20035AY  25338.61457252  .00052414  00000+0  11025-2 0  9998,2 45703  53.0423  53.0839 0009304 163.1297 197.0019 15.44774406305536
STARLINK-1411,45706,53.0518,0.0002206,15.45255119,429.126544907479,432.13057227192894,1 45706U 20035BB  25338.56382595  .00091435  00000+0  18786-2 0  9999,2 45706  53.0518  80.5585 0002206 343.6741  16.4193 15.45255119305139
STARLINK-1423,45710,53.0536,0.0001201,15.06403235,546.3699099759051,548.0333763179879,1 45710U 20035BF  25338.62522584  .00001746  00000+0  13605-3 0  9997,2 45710  53.0536 103.3835 0001201  74.0187 286.0934 15.06403235304823
STARLINK-1433,45711,53.0543,0.0001303,15.06422733,546.2395216048417,548.0442492823877,1 45711U 20035BG  25338.67312059  .00007021  00000+0  48949-3 0  9998,2 45711  53.0543 103.1633 0001303  88.5078 271.6060 15.06422733304822
STARLINK-1434,45712,53.0494,0.0003627,15.17936325,509.57942070833906,514.577583033396,1 45712U 20035BH  25338.60453186  .00078962  00000+0  38165-2 0  9999,2 45712  53.0494  97.1931 0003627 175.0413 185.0618 15.17936325304913
STARLINK-1465,45731,53.0542,0.0001028,15.06418601,546.44262916768,547.8664691101831,1 45731U 20038B   25338.63997044  .00016130  00000+0  10987-2 0  9993,2 45731  53.0542 303.3112 0001028  82.7850 277.3256 15.06418601301867
STARLINK-1471,45735,53.0504,0.0001661,15.42702424,437.0052385429108,439.2696049058077,1 45735U 20038F   25338.45580939  .00043734  00000+0  99050-3 0  9997,2 45735  53.0504 235.9243 0001661  96.6325 263.4869 15.42702424302808
STARLINK-1474,45738,53.0331,0.0003208,15.73597084,346.46836184650056,350.78425318460177,1 45738U 20038J   25337.88018557  .00136712  00000+0  94617-3 0  9991,2 45738  53.0331 189.0606 0003208 114.0777 246.0577 15.73597084303404
STARLINK-1475,45739,53.0378,0.0002863,16.04574363,259.8681600820137,263.6701703522167,1 45739U 20038K   25338.68432683  .00838406  36625-3  12273-2 0  9993,2 45739  53.0378 146.9218 0002863 290.7831  69.2893 16.04574363304076
STARLINK-1480,45741,53.0554,0.0001896,15.06409338,545.8698978007051,548.4959791213687,1 45741U 20038M   25338.62153468  .00004223  00000+0  30218-3 0  9997,2 45741  53.0554 303.3943 0001896  80.4002 279.7201 15.06409338301874
STARLINK-1500,45744,53.0412,0.0001838,15.2938547,476.388095190684,478.90828182597943,1 45744U 20038Q   25338.10808281  .00043550  00000+0  15112-2 0  9994,2 45744  53.0412 279.2345 0001838  24.5601 335.5485 15.29385470302160
STARLINK-1504,45746,53.0281,0.0003392,15.43591841,433.2076217656886,437.8300058697823,1 45746U 20038S   25338.01603359  .00070190  00000+0  15319-2 0  9994,2 45746  53.0281 241.0063 0003392  68.6950 291.4417 15.43591841302682
STARLINK-1506,45747,53.067,0.0002458,15.22771159,495.7963483234962,499.1764047754086,1 45747U 20038T   25338.27340852  .00026173  00000+0  11163-2 0  9994,2 45747  53.0670 282.6051 0002458  16.0701 344.0373 15.22771159302131
STARLINK-1464,45751,53.0543,0.000161,15.06400022,546.0965094044741,548.3264716184185,1 45751U 20038X   25338.68971630 -.00002711  00000+0 -16313-3 0  9995,2 45751  53.0543 283.0892 0001610 100.5073 259.6098 15.06400022302161
STARLINK-1477,45754,53.0534,0.0005722,15.08715084,536.1666038966905,544.0838631967608,1 45754U 20038AA  25338.54276867  .00043453  00000+0  27399-2 0  9994,2 45754  53.0534 283.4417 0005722  73.7158 286.4461 15.08715084302143
STARLINK-1478,45755,53.0541,0.0001322,15.0646023,546.1114611367784,547.9424744898679,1 45755U 20038AB  25338.12576978  .00030690  00000+0  20669-2 0  9997,2 45755  53.0541 285.6177 0001322 110.1006 250.0125 15.06460230302062
STARLINK-1484,45756,53.0122,0.0002488,15.68105562,362.6444283189385,365.9994758935072,1 45756U 20038AC  25338.69608638  .00133705  00000+0  11648-2 0  9997,2 45756  53.0122 174.4055 0002488 137.6283 222.4925 15.68105562303674
